{
  "version": 0.6,
  "generator": "Overpass API 0.7.56.1002 b121d216",
  "osm3s": {
    "timestamp_osm_base": "2020-03-30T14:22:02Z",
    "copyright": "The data included in this document is from www.openstreetmap.org. The data is made available under ODbL."
  },
  "elements": [

{
  "type": "node",
  "id": 471573499,
  "lat": 51.0311638,
  "lon": 3.7134913,
  "tags": {
    "addr:housenumber": "681",
    "addr:street": "Kortrijksesteenweg",
    "amenity": "fast_food",
    "cuisine": "friture",
    "diet:vegetarian": "no",
    "diet:vegetarian:description": "bakt in rundvet",
    "drive_through": "no",
    "name": "'t Blauw Kotje",
    "outdoor_seating": "yes",
    "takeaway": "yes",
    "wheelchair": "no"
  }
},
{
  "type": "node",
  "id": 474342760,
  "lat": 51.0506061,
  "lon": 3.7115416,
  "tags": {
    "addr:city": "Gent",
    "addr:housenumber": "89",
    "addr:postcode": "9000",
    "addr:street": "Papegaaistraat",
    "amenity": "fast_food",
    "cuisine": "friture",
    "delivery": "yes",
    "diet:vegan": "yes",
    "diet:vegetarian": "yes",
    "name": "De Frietketel",
    "opening_hours": "Mo 11:00-14:00, 17:00-22:00; Tu-Fr 11:00-14:00, 17:00-23:00; Sa 17:00-22:00",
    "outdoor_seating": "no",
    "phone": "+32 9 329 40 22",
    "smoking": "no",
    "takeaway": "yes",
    "wheelchair": "limited"
  }
},
{
  "type": "node",
  "id": 602681364,
  "lat": 51.0545167,
  "lon": 3.7222522,
  "tags": {
    "amenity": "fast_food",
    "cuisine": "wok",
    "name": "Wok a Way",
    "wheelchair": "no"
  }
},
{
  "type": "node",
  "id": 617854723,
  "lat": 51.0860669,
  "lon": 3.7298869,
  "tags": {
    "amenity": "fast_food"
  }
},
{
  "type": "node",
  "id": 704804777,
  "lat": 51.0120401,
  "lon": 3.5825699,
  "tags": {
    "amenity": "fast_food",
    "name": "'t Bintje",
    "wheelchair": "yes"
  }
},
{
  "type": "node",
  "id": 819591968,
  "lat": 51.0369387,
  "lon": 3.7366492,
  "tags": {
    "amenity": "fast_food",
    "name": "Taste It"
  }
},
{
  "type": "node",
  "id": 819591971,
  "lat": 51.0360958,
  "lon": 3.7354375,
  "tags": {
    "addr:city": "Ledeberg",
    "addr:country": "BE",
    "addr:housenumber": "1",
    "addr:postcode": "9050",
    "addr:street": "Joseph Rey-straat",
    "amenity": "fast_food",
    "name": "'t Kruimelke",
    "wheelchair": "no"
  }
},
{
  "type": "node",
  "id": 1003763707,
  "lat": 51.1016343,
  "lon": 3.7137141,
  "tags": {
    "amenity": "fast_food",
    "brand": "McDonald's",
    "brand:wikidata": "Q38076",
    "brand:wikipedia": "en:McDonald's",
    "cuisine": "burger",
    "name": "McDonald's",
    "takeaway": "yes"
  }
},
{
  "type": "node",
  "id": 1186945849,
  "lat": 51.0544541,
  "lon": 3.7222265,
  "tags": {
    "amenity": "fast_food",
    "name": "Ellis Gourmet Burger",
    "website": "https://ellisgourmetburger.be/"
  }
},
{
  "type": "node",
  "id": 1209360740,
  "lat": 51.0572802,
  "lon": 3.7244183,
  "tags": {
    "addr:city": "Gent",
    "addr:housenumber": "1",
    "addr:postcode": "9000",
    "addr:street": "Grootkanonplein",
    "addr:unit": "D",
    "air_conditioning": "yes",
    "amenity": "fast_food",
    "cuisine": "donut;pasta;cornetpizza;softijs;milkshakes",
    "description": "The best donuts in town and many things more like pasta and Cornetpizza´s A lot of Candy and Slush, PandaSlush",
    "email": "openstreetmap@theshowboat.be",
    "internet_access": "yes",
    "name": "The Showboat / Do´Nuts",
    "opening_hours": "Mo-Su 10:00-22:00",
    "operator": "The Showboat",
    "payment:cash": "yes",
    "payment:contactless": "yes",
    "payment:credit_cards": "yes",
    "payment:maestro": "yes",
    "payment:visa_debit": "yes",
    "website": "https://theshowboat.be/"
  }
},
{
  "type": "node",
  "id": 1293099635,
  "lat": 51.0306969,
  "lon": 3.7132297,
  "tags": {
    "addr:city": "Gent",
    "addr:housenumber": "701",
    "addr:postcode": "9000",
    "addr:street": "Kortrijksesteenweg",
    "amenity": "fast_food",
    "cuisine": "chinese",
    "name": "Oriental",
    "phone": "+32 9 245 07 02",
    "takeaway": "only",
    "website": "https://sites.google.com/site/orientalgentkortrijksesteenweg/"
  }
},
{
  "type": "node",
  "id": 1349482590,
  "lat": 51.0523891,
  "lon": 3.7210955,
  "tags": {
    "amenity": "fast_food",
    "name": "Goesting"
  }
},
{
  "type": "node",
  "id": 1381893761,
  "lat": 51.0565057,
  "lon": 3.7216310,
  "tags": {
    "amenity": "fast_food",
    "cuisine": "friture",
    "name": "'t Puntzakje"
  }
},
{
  "type": "node",
  "id": 1432587520,
  "lat": 51.0567571,
  "lon": 3.7422530,
  "tags": {
    "amenity": "fast_food",
    "cuisine": "friture",
    "name": "Frituur De Dampoort"
  }
},
{
  "type": "node",
  "id": 1438344848,
  "lat": 51.0568077,
  "lon": 3.7423133,
  "tags": {
    "amenity": "fast_food"
  }
},
{
  "type": "node",
  "id": 1461091017,
  "lat": 51.0498480,
  "lon": 3.7215513,
  "tags": {
    "amenity": "fast_food",
    "name": "Rigoletto"
  }
},
{
  "type": "node",
  "id": 1532794981,
  "lat": 51.0551595,
  "lon": 3.7217845,
  "tags": {
    "addr:city": "Ledeberg",
    "addr:country": "BE",
    "addr:housenumber": "35",
    "addr:postcode": "9000",
    "addr:street": "Korenmarkt",
    "amenity": "fast_food",
    "cuisine": "burger",
    "name": "Quick Giant Bar"
  }
},
{
  "type": "node",
  "id": 1532798349,
  "lat": 51.0553376,
  "lon": 3.7215853,
  "tags": {
    "amenity": "fast_food",
    "cuisine": "friture",
    "name": "Frituur Frans Hooiaard"
  }
},
{
  "type": "node",
  "id": 1542762459,
  "lat": 51.0286627,
  "lon": 3.7220815,
  "tags": {
    "addr:housenumber": "318",
    "addr:street": "Zwijnaardsesteenweg",
    "amenity": "fast_food",
    "cuisine": "friture",
    "name": "'t Pleintje",
    "opening_hours": "Mo-Fr 11:30-14:00,17:00-23:00; Su 17:00-22:00",
    "outdoor_seating": "yes",
    "takeaway": "yes"
  }
},
{
  "type": "node",
  "id": 1584892359,
  "lat": 50.9923216,
  "lon": 3.6509888,
  "tags": {
    "amenity": "fast_food",
    "cuisine": "friture",
    "name": "Lize"
  }
},
{
  "type": "node",
  "id": 1590803751,
  "lat": 51.0358856,
  "lon": 3.7436959,
  "tags": {
    "addr:city": "Ledeberg",
    "addr:housenumber": "119",
    "addr:postcode": "9050",
    "addr:street": "Langestraat",
    "amenity": "fast_food",
    "cuisine": "friture",
    "drive_through": "no",
    "name": "Frituur Luc"
  }
},
{
  "type": "node",
  "id": 1594666316,
  "lat": 51.0397660,
  "lon": 3.7263879,
  "tags": {
    "addr:housenumber": "11",
    "addr:street": "Stalhof",
    "amenity": "fast_food",
    "cuisine": "sandwich",
    "description": "broodjeszaak",
    "name": "De Smul"
  }
},
{
  "type": "node",
  "id": 1598760118,
  "lat": 51.0479040,
  "lon": 3.7271614,
  "tags": {
    "addr:city": "Ledeberg",
    "addr:country": "BE",
    "addr:housenumber": "106",
    "addr:postcode": "9000",
    "addr:street": "Sint-Pietersnieuwstraat",
    "amenity": "fast_food",
    "cuisine": "kebab",
    "name": "Isparta"
  }
},
{
  "type": "node",
  "id": 1598830926,
  "lat": 51.0361968,
  "lon": 3.7107012,
  "tags": {
    "amenity": "fast_food",
    "cuisine": "friture",
    "wheelchair": "yes"
  }
},
{
  "type": "node",
  "id": 1598830946,
  "lat": 51.0374669,
  "lon": 3.7110093,
  "tags": {
    "amenity": "fast_food",
    "cuisine": "friture",
    "name": "Mister Friet",
    "opening_hours": "Mo-Fr 11:30-14:00, 17:00-22:00; Su 17:00-22:00"
  }
},
{
  "type": "node",
  "id": 1598830956,
  "lat": 51.0365800,
  "lon": 3.7126006,
  "tags": {
    "amenity": "fast_food",
    "cuisine": "friture"
  }
},
{
  "type": "node",
  "id": 1598830960,
  "lat": 51.0388874,
  "lon": 3.7106475,
  "tags": {
    "amenity": "fast_food",
    "name": "Bon Appetit"
  }
},
{
  "type": "node",
  "id": 1599352616,
  "lat": 51.0399643,
  "lon": 3.7166654,
  "tags": {
    "addr:city": "Gent",
    "addr:housenumber": "132",
    "addr:postcode": "9000",
    "addr:street": "Kortrijksesteenweg",
    "amenity": "fast_food",
    "cuisine": "sushi",
    "name": "Sushi Point",
    "website": "http://www.sushipoint.be/"
  }
},
{
  "type": "node",
  "id": 1603599048,
  "lat": 51.0568751,
  "lon": 3.7280263,
  "tags": {
    "amenity": "fast_food",
    "cuisine": "friture",
    "name": "Frituur Bij Sint-Jacobs"
  }
},
{
  "type": "node",
  "id": 1628067360,
  "lat": 51.0533939,
  "lon": 3.7312491,
  "tags": {
    "amenity": "fast_food",
    "name": "Günes"
  }
},
{
  "type": "node",
  "id": 1628067366,
  "lat": 51.0536830,
  "lon": 3.7219073,
  "tags": {
    "addr:city": "Gent",
    "addr:country": "BE",
    "addr:housenumber": "1",
    "addr:postcode": "9000",
    "addr:street": "Sint-Michielshelling",
    "amenity": "fast_food",
    "brand": "McDonald's",
    "brand:wikidata": "Q38076",
    "brand:wikipedia": "en:McDonald's",
    "cuisine": "burger",
    "name": "McDonald's",
    "takeaway": "yes",
    "toilets:wheelchair": "no",
    "website": "https://www.mcdonalds.be/",
    "wheelchair": "no"
  }
},
{
  "type": "node",
  "id": 1628067385,
  "lat": 51.0534448,
  "lon": 3.7312139,
  "tags": {
    "amenity": "fast_food",
    "cuisine": "friture",
    "name": "Xantyp",
    "outdoor_seating": "no"
  }
},
{
  "type": "node",
  "id": 1628956682,
  "lat": 51.0411273,
  "lon": 3.7276412,
  "tags": {
    "amenity": "fast_food",
    "cuisine": "friture",
    "diet:vegetarian": "yes",
    "name": "Frietcultuur",
    "takeaway": "yes",
    "wheelchair": "limited"
  }
},
{
  "type": "node",
  "id": 1648826086,
  "lat": 50.9982652,
  "lon": 3.7699175,
  "tags": {
    "amenity": "fast_food",
    "name": "Bon Appetit"
  }
},
{
  "type": "node",
  "id": 1690599456,
  "lat": 51.0498524,
  "lon": 3.7214591,
  "tags": {
    "amenity": "fast_food",
    "cuisine": "friture",
    "name": "Melangoest"
  }
},
{
  "type": "node",
  "id": 1705424958,
  "lat": 51.0224962,
  "lon": 3.7202036,
  "tags": {
    "amenity": "fast_food",
    "cuisine": "turkish",
    "name": "Pitta"
  }
},
{
  "type": "node",
  "id": 1802837736,
  "lat": 51.0367853,
  "lon": 3.7129689,
  "tags": {
    "amenity": "fast_food",
    "name": "Beleg Van Gent"
  }
},
{
  "type": "node",
  "id": 1802897426,
  "lat": 51.0422625,
  "lon": 3.7190545,
  "tags": {
    "amenity": "fast_food",
    "name": "The Lounge",
    "takeaway": "yes"
  }
},
{
  "type": "node",
  "id": 1804231728,
  "lat": 51.0488908,
  "lon": 3.7268505,
  "tags": {
    "addr:housenumber": "126A",
    "addr:postcode": "9000",
    "addr:street": "Sint-Pietersnieuwstraat",
    "amenity": "fast_food",
    "brand": "Panos",
    "brand:wikidata": "Q3384496",
    "brand:wikipedia": "nl:Panos",
    "cuisine": "sandwich",
    "drive_through": "no",
    "email": "Gent.walpoortstraat@panos.be",
    "name": "Panos",
    "opening_hours": "Mo-Sa 06:30-18:30",
    "phone": "+32 9 384 70 56",
    "takeaway": "yes",
    "website": "https://www.panos.be/nl/winkel/panos-gent---walpoortstraat--city-gent-311"
  }
},
{
  "type": "node",
  "id": 1834489134,
  "lat": 50.9955353,
  "lon": 3.7453799,
  "tags": {
    "amenity": "fast_food",
    "name": "Friet Shop"
  }
},
{
  "type": "node",
  "id": 1834489153,
  "lat": 50.9953566,
  "lon": 3.7456879,
  "tags": {
    "amenity": "fast_food",
    "name": "Petit Nez"
  }
},
{
  "type": "node",
  "id": 1834489155,
  "lat": 50.9951276,
  "lon": 3.7453410,
  "tags": {
    "amenity": "fast_food",
    "name": "Pita Atlas"
  }
},
{
  "type": "node",
  "id": 1853026281,
  "lat": 51.0513853,
  "lon": 3.6626655,
  "tags": {
    "amenity": "fast_food",
    "cuisine": "pizza,_turkish",
    "delivery": "yes",
    "drive_through": "no",
    "name": "Hasan Baba",
    "takeaway": "yes"
  }
},
{
  "type": "node",
  "id": 1949557491,
  "lat": 51.0469062,
  "lon": 3.7106021,
  "tags": {
    "amenity": "fast_food",
    "brand": "McDonald's",
    "brand:wikidata": "Q38076",
    "brand:wikipedia": "en:McDonald's",
    "cuisine": "burger",
    "name": "McDonald's",
    "takeaway": "yes"
  }
},
{
  "type": "node",
  "id": 2105509339,
  "lat": 51.0442433,
  "lon": 3.7217947,
  "tags": {
    "addr:city": "Ledeberg",
    "addr:postcode": "9000",
    "addr:street": "Kortrijksepoortstraat",
    "amenity": "fast_food",
    "contact:facebook": "https://www.facebook.com/snackbarcs",
    "cuisine": "sandwich",
    "name": "Chef's Secret"
  }
},
{
  "type": "node",
  "id": 2123686347,
  "lat": 51.0438721,
  "lon": 3.7260824,
  "tags": {
    "addr:housenumber": "218",
    "addr:street": "Sint-Pietersnieuwstraat",
    "amenity": "fast_food",
    "cuisine": "sandwich",
    "description": "belegde broodjes; soep; provencettes; veggieburgers; pasta",
    "name": "Le pain total",
    "opening_hours": "Mo-Th 09:00-20:00; Fr 09:00-16:00",
    "website": "http://lepaintotal.be/"
  }
},
{
  "type": "node",
  "id": 2145771577,
  "lat": 51.0558592,
  "lon": 3.7217477,
  "tags": {
    "amenity": "fast_food",
    "cuisine": "friture",
    "name": "Frituur Filip"
  }
},
{
  "type": "node",
  "id": 2225073631,
  "lat": 51.0454968,
  "lon": 3.7434782,
  "tags": {
    "addr:city": "Ledeberg",
    "addr:country": "BE",
    "addr:housename": "Frituur De Kaai",
    "addr:housenumber": "204",
    "addr:postcode": "9000",
    "addr:street": "Karperstraat",
    "amenity": "fast_food",
    "cuisine": "fish_and_chips",
    "name": "Frituur De Kaai"
  }
},
{
  "type": "node",
  "id": 2225073637,
  "lat": 51.0470954,
  "lon": 3.7462976,
  "tags": {
    "addr:street": "Vlaamsekaai",
    "amenity": "fast_food",
    "cuisine": "friture"
  }
},
{
  "type": "node",
  "id": 2275104988,
  "lat": 51.0332782,
  "lon": 3.7247007,
  "tags": {
    "addr:housenumber": "153",
    "addr:postcode": "9000",
    "addr:street": "Zwijnaardsesteenweg",
    "amenity": "fast_food",
    "cuisine": "friture",
    "name": "Emily",
    "opening_hours": "Mo-Fr 11:30-14:00,17:00-22:00; Su 17:00-22:00",
    "phone": "+32 9 335 62 70",
    "website": "http://www.emilys.be/"
  }
},
{
  "type": "node",
  "id": 2275104989,
  "lat": 51.0299837,
  "lon": 3.7231691,
  "tags": {
    "amenity": "fast_food",
    "cuisine": "turkish",
    "name": "Anadolu"
  }
},
{
  "type": "node",
  "id": 2275116530,
  "lat": 51.0358334,
  "lon": 3.7262805,
  "tags": {
    "amenity": "fast_food",
    "cuisine": "friture",
    "name": "De Zilveren Puntzak"
  }
},
{
  "type": "node",
  "id": 2275116533,
  "lat": 51.0357829,
  "lon": 3.7262724,
  "tags": {
    "amenity": "fast_food",
    "cuisine": "sandwich",
    "name": "Broodnodig"
  }
},
{
  "type": "node",
  "id": 2305188556,
  "lat": 51.0559930,
  "lon": 3.7224662,
  "tags": {
    "amenity": "fast_food",
    "name": "Orient"
  }
},
{
  "type": "node",
  "id": 2368293410,
  "lat": 51.0361231,
  "lon": 3.6870547,
  "tags": {
    "amenity": "fast_food"
  }
},
{
  "type": "node",
  "id": 2399172933,
  "lat": 51.0560987,
  "lon": 3.7111765,
  "tags": {
    "amenity": "fast_food",
    "name": "Pizza Roma"
  }
},
{
  "type": "node",
  "id": 2422703027,
  "lat": 51.0722133,
  "lon": 3.7100922,
  "tags": {
    "amenity": "fast_food",
    "cuisine": "burger"
  }
},
{
  "type": "node",
  "id": 2599656174,
  "lat": 51.0726794,
  "lon": 3.7104051,
  "tags": {
    "addr:city": "Gent",
    "addr:housenumber": "26",
    "addr:postcode": "9000",
    "addr:street": "Edmond Van Beverenplein",
    "amenity": "fast_food",
    "cuisine": "friture",
    "name": "Frituur Nancy",
    "phone": "+32 9 226 72 90",
    "smoking": "no"
  }
},
{
  "type": "node",
  "id": 2688581091,
  "lat": 51.0188682,
  "lon": 3.7540002,
  "tags": {
    "addr:city": "Merelbeke",
    "addr:housenumber": "39",
    "addr:postcode": "9820",
    "addr:street": "Hundelgemsesteenweg",
    "amenity": "fast_food",
    "cuisine": "friture",
    "name": "Flora Friet"
  }
},
{
  "type": "node",
  "id": 2705418989,
  "lat": 51.0567909,
  "lon": 3.7219750,
  "tags": {
    "amenity": "fast_food",
    "cuisine": "friture"
  }
},
{
  "type": "node",
  "id": 3167415120,
  "lat": 51.0362686,
  "lon": 3.7100742,
  "tags": {
    "amenity": "fast_food",
    "name": "Wok Away",
    "toilets:wheelchair": "no",
    "wheelchair": "yes"
  }
},
{
  "type": "node",
  "id": 3266027860,
  "lat": 51.0573263,
  "lon": 3.7253870,
  "tags": {
    "amenity": "fast_food",
    "cuisine": "friture",
    "name": "Frituur Jozef"
  }
},
{
  "type": "node",
  "id": 3266030161,
  "lat": 51.0560186,
  "lon": 3.7273610,
  "tags": {
    "amenity": "fast_food",
    "cuisine": "friture",
    "name": "Sympa"
  }
},
{
  "type": "node",
  "id": 3266033261,
  "lat": 51.0500402,
  "lon": 3.7164564,
  "tags": {
    "amenity": "fast_food",
    "cuisine": "friture",
    "name": "De Papegaai"
  }
},
{
  "type": "node",
  "id": 3284066961,
  "lat": 51.0555549,
  "lon": 3.7288505,
  "tags": {
    "amenity": "fast_food",
    "cuisine": "burger",
    "name": "Jack"
  }
},
{
  "type": "node",
  "id": 3295051603,
  "lat": 51.0403942,
  "lon": 3.7544082,
  "tags": {
    "amenity": "fast_food",
    "cuisine": "friture",
    "name": "Frituur Vierweegs"
  }
},
{
  "type": "node",
  "id": 3299030673,
  "lat": 51.0426294,
  "lon": 3.7184037,
  "tags": {
    "amenity": "fast_food",
    "cuisine": "friture",
    "name": "Fritadel"
  }
},
{
  "type": "node",
  "id": 3392860009,
  "lat": 51.0388950,
  "lon": 3.7262987,
  "tags": {
    "addr:city": "Gent",
    "addr:housenumber": "57",
    "addr:postcode": "9000",
    "addr:street": "Overpoortstraat",
    "amenity": "fast_food",
    "brand": "Domino's Pizza",
    "brand:wikidata": "Q839466",
    "brand:wikipedia": "en:Domino's Pizza",
    "contact:phone": "+32 09 220 37 37",
    "contact:website": "http://pizza.dominos.be/nl",
    "cuisine": "pizza",
    "name": "Domino's Pizza",
    "short_name": "Domino's",
    "takeaway": "yes"
  }
},
{
  "type": "node",
  "id": 3413034464,
  "lat": 51.0388205,
  "lon": 3.7263721,
  "tags": {
    "addr:housenumber": "63 A",
    "addr:street": "Overpoortstraat",
    "amenity": "fast_food",
    "cuisine": "chicken;ribs",
    "delivery": "yes",
    "name": "The Ribhouse",
    "opening_hours": "17:00-00:00",
    "payment:bitcoin": "yes",
    "phone": "+32 9 279 22 22",
    "takeaway": "yes",
    "website": "https://www.ribhouse.be/"
  }
},
{
  "type": "node",
  "id": 3492774156,
  "lat": 51.0149131,
  "lon": 3.5871666,
  "tags": {
    "addr:street": "Leernsesteenweg",
    "amenity": "fast_food",
    "building": "booth",
    "cuisine": "Ovenwarme_meeneempizza's",
    "description": "marktkraam",
    "name": "RAPPIZZA",
    "opening_hours": "Th 16:00-21:00",
    "operator": "RAPPIZZA",
    "takeaway": "only",
    "website": "http://www.rappizza.be"
  }
},
{
  "type": "node",
  "id": 3492804680,
  "lat": 50.9925081,
  "lon": 3.6519693,
  "tags": {
    "amenity": "fast_food",
    "building": "booth",
    "cuisine": "pizza",
    "description": "Ovenwarme meeneempizza's",
    "name": "RAPPIZZA",
    "opening_hours": "Sa 09:00-13:00",
    "operator": "RAPPIZZA",
    "takeaway": "only",
    "website": "http://www.rappizza.be"
  }
},
{
  "type": "node",
  "id": 3492811665,
  "lat": 51.0142846,
  "lon": 3.6640258,
  "tags": {
    "addr:housenumber": "17A",
    "addr:street": "Hemelrijkstraat",
    "amenity": "fast_food",
    "building": "booth",
    "cuisine": "pizza",
    "description": "Ovenwarme meeneempizza's",
    "name": "RAPPIZZA",
    "opening_hours": "Fr 17:00-21:00; Su 16:00-20:00",
    "operator": "RAPPIZZA",
    "takeaway": "only",
    "website": "http://www.rappizza.be"
  }
},
{
  "type": "node",
  "id": 3492815073,
  "lat": 51.0043445,
  "lon": 3.7517984,
  "tags": {
    "amenity": "fast_food",
    "cuisine": "pizza",
    "description": "Ovenwarme meeneempizza's",
    "name": "RAPPIZZA",
    "opening_hours": "Tu 16:00-20:00",
    "operator": "RAPPIZZA",
    "takeaway": "only",
    "website": "http://www.rappizza.be"
  }
},
{
  "type": "node",
  "id": 3518972915,
  "lat": 51.0320476,
  "lon": 3.7611400,
  "tags": {
    "addr:city": "Gentbrugge",
    "addr:housenumber": "3",
    "addr:postcode": "9050",
    "addr:street": "Schooldreef",
    "amenity": "fast_food",
    "cuisine": "friture",
    "name": "New Frietshop"
  }
},
{
  "type": "node",
  "id": 3576655162,
  "lat": 51.0432436,
  "lon": 3.7249442,
  "tags": {
    "addr:housenumber": "19/001",
    "addr:street": "Sint-Amandstraat",
    "amenity": "fast_food",
    "cuisine": "asian",
    "email": "jefferhami@gmail.com",
    "internet_access": "wlan",
    "internet_access:fee": "no",
    "name": "Oasian",
    "phone": "+32 479 49 93 91",
    "smoking": "no",
    "takeaway": "yes",
    "website": "http://www.oasian.be/",
    "wheelchair": "yes"
  }
},
{
  "type": "node",
  "id": 3625606680,
  "lat": 51.0362869,
  "lon": 3.7130515,
  "tags": {
    "addr:housenumber": "209",
    "addr:street": "Koningin Astridlaan",
    "amenity": "fast_food",
    "cuisine": "burger",
    "diet:vegetarian": "yes",
    "name": "Paul's Boutique",
    "opening_hours": "Mo-Fr 11:00-14:00,17:00-21:30",
    "website": "https://www.paulsboutiquegent.be/"
  }
},
{
  "type": "node",
  "id": 3755186328,
  "lat": 51.0129318,
  "lon": 3.5838630,
  "tags": {
    "amenity": "fast_food",
    "cuisine": "regional",
    "name": "Frituur"
  }
},
{
  "type": "node",
  "id": 3817866462,
  "lat": 51.0415566,
  "lon": 3.7255600,
  "tags": {
    "amenity": "fast_food",
    "name": "Snack Tonton"
  }
},
{
  "type": "node",
  "id": 3967079278,
  "lat": 51.0449766,
  "lon": 3.7586484,
  "tags": {
    "amenity": "fast_food",
    "cuisine": "friture"
  }
},
{
  "type": "node",
  "id": 3967079282,
  "lat": 51.0442709,
  "lon": 3.7526646,
  "tags": {
    "amenity": "fast_food",
    "cuisine": "friture",
    "name": "De Goeie Goeste"
  }
},
{
  "type": "node",
  "id": 3967087158,
  "lat": 51.0433201,
  "lon": 3.7590615,
  "tags": {
    "amenity": "fast_food",
    "cuisine": "friture"
  }
},
{
  "type": "node",
  "id": 4065303862,
  "lat": 51.0556262,
  "lon": 3.7405112,
  "tags": {
    "amenity": "fast_food",
    "brand": "Panos",
    "brand:wikidata": "Q3384496",
    "cuisine": "sandwich",
    "indoor": "yes",
    "level": "0",
    "name": "Panos"
  }
},
{
  "type": "node",
  "id": 4083061615,
  "lat": 51.0026215,
  "lon": 3.7986390,
  "tags": {
    "amenity": "fast_food",
    "name": "Antoine"
  }
},
{
  "type": "node",
  "id": 4130825680,
  "lat": 51.0101407,
  "lon": 3.7080108,
  "tags": {
    "access": "private",
    "addr:city": "Zwijnaarde",
    "addr:housenumber": "60",
    "addr:postcode": "9052",
    "addr:street": "Technologiepark-Zwijnaarde",
    "amenity": "fast_food",
    "capacity": "60",
    "cuisine": "sandwich",
    "delivery": "no",
    "diet:vegetarian": "yes",
    "level": "0",
    "name": "Cafetaria Ardoyen",
    "opening_hours": "Mo-Fr 08:00-14:00; PH off",
    "operator": "Universiteit Gent",
    "operator:wikidata": "Q1137665",
    "outdoor_seating": "no",
    "website": "https://www.ugent.be/student/nl/meer-dan-studeren/resto/cafetarias/cafetariaardoyen.htm"
  }
},
{
  "type": "node",
  "id": 4155424989,
  "lat": 51.0525357,
  "lon": 3.7178629,
  "tags": {
    "amenity": "fast_food",
    "cuisine": "sandwich",
    "name": "Aida's sandwichbar"
  }
},
{
  "type": "node",
  "id": 4158261701,
  "lat": 51.0569159,
  "lon": 3.6936334,
  "tags": {
    "addr:housenumber": "185",
    "addr:street": "Rooiegemlaan",
    "amenity": "fast_food",
    "cuisine": "friture",
    "name": "De Frietschap",
    "opening_hours": "Mo-Sa 11:30-14:00; Mo-Th, Su 17:00-22:30; Fr, Sa 17:00-23:30"
  }
},
{
  "type": "node",
  "id": 4163127650,
  "lat": 51.0696796,
  "lon": 3.7312213,
  "tags": {
    "addr:postcode": "9000",
    "addr:street": "Dok-Noord",
    "amenity": "fast_food",
    "cuisine": "burger",
    "name": "Wunderbar",
    "website": "http://wunderbargent.be/"
  }
},
{
  "type": "node",
  "id": 4185953464,
  "lat": 51.0626140,
  "lon": 3.6986968,
  "tags": {
    "amenity": "fast_food",
    "name": "Pamukkale"
  }
},
{
  "type": "node",
  "id": 4228053291,
  "lat": 51.0438345,
  "lon": 3.7243234,
  "tags": {
    "addr:street": "Sint-Amandstraat",
    "amenity": "fast_food",
    "cuisine": "sandwich",
    "name": "'t Hoogtepunt"
  }
},
{
  "type": "node",
  "id": 4229989138,
  "lat": 51.0559511,
  "lon": 3.7228565,
  "tags": {
    "amenity": "fast_food",
    "cuisine": "sandwich",
    "name": "Panos"
  }
},
{
  "type": "node",
  "id": 4253073766,
  "lat": 51.1110367,
  "lon": 3.6995453,
  "tags": {
    "addr:city": "Evergem",
    "addr:housenumber": "28",
    "addr:postcode": "9940",
    "addr:street": "Brielken",
    "amenity": "fast_food",
    "cuisine": "friture",
    "delivery": "no",
    "drive_through": "no",
    "opening_hours": "Mo 11:00-13:30,17:00-21:00; Tu-Su 11:00-13:30,17:00-22:30; Fr 11:00-22:30; Sa off",
    "smoking": "outside",
    "takeaway": "yes"
  }
},
{
  "type": "node",
  "id": 4256288485,
  "lat": 51.0521497,
  "lon": 3.7216298,
  "tags": {
    "amenity": "fast_food",
    "name": "Ketchup"
  }
},
{
  "type": "node",
  "id": 4258301746,
  "lat": 51.0455552,
  "lon": 3.7275731,
  "tags": {
    "access": "private",
    "amenity": "fast_food",
    "capacity": "50",
    "cuisine": "sandwich",
    "delivery": "no",
    "diet:vegetarian": "yes",
    "level": "-1",
    "name": "Cafetaria De Brug",
    "opening_hours": "Mo-Fr 11:15-14:00; PH off",
    "operator": "Universiteit Gent",
    "operator:wikidata": "Q1137665",
    "outdoor_seating": "yes",
    "takeaway": "yes",
    "website": "https://www.ugent.be/student/nl/meer-dan-studeren/resto/cafetarias/cafetariadebrug.htm"
  }
},
{
  "type": "node",
  "id": 4258387237,
  "lat": 51.0544029,
  "lon": 3.7222054,
  "tags": {
    "amenity": "fast_food",
    "name": "EXKi"
  }
},
{
  "type": "node",
  "id": 4305070480,
  "lat": 51.0535973,
  "lon": 3.7436530,
  "tags": {
    "addr:city": "Gent",
    "addr:housenumber": "130b",
    "addr:postcode": "9000",
    "addr:street": "Dendermondsesteenweg",
    "amenity": "fast_food",
    "cuisine": "sandwich",
    "name": "Panos",
    "opening_hours:url": "http://stores.panos.be/fr/s/panos-gent---dampoort",
    "smoking": "no",
    "takeaway": "yes"
  }
},
{
  "type": "node",
  "id": 4332132522,
  "lat": 51.0281193,
  "lon": 3.7686411,
  "tags": {
    "addr:city": "Gentbrugge",
    "addr:housenumber": "753",
    "addr:postcode": "9050",
    "addr:street": "Brusselsesteenweg",
    "amenity": "fast_food",
    "cuisine": "burger",
    "delivery": "no",
    "description": "Good fries shop, sitting inside is possible",
    "drive_through": "no",
    "name": "Fritstop",
    "takeaway": "yes"
  }
},
{
  "type": "node",
  "id": 4334116409,
  "lat": 51.0793512,
  "lon": 3.7293304,
  "tags": {
    "addr:postcode": "9000",
    "addr:street": "Meulesteedsesteenweg",
    "amenity": "fast_food",
    "cuisine": "friture",
    "name": "Frituur Meulestede",
    "opening_hours": "We-Su 11:00-13:30, 17:00-22:00"
  }
},
{
  "type": "node",
  "id": 4338768428,
  "lat": 51.0566615,
  "lon": 3.7100041,
  "tags": {
    "amenity": "fast_food",
    "name": "Golden Friet"
  }
},
{
  "type": "node",
  "id": 4364430397,
  "lat": 51.0560978,
  "lon": 3.7228515,
  "tags": {
    "addr:housenumber": "9",
    "addr:street": "Langemunt",
    "amenity": "fast_food",
    "cuisine": "kebab",
    "name": "That's Kebab",
    "name:nl": "That's Kebab"
  }
},
{
  "type": "node",
  "id": 4391556779,
  "lat": 51.0416091,
  "lon": 3.7296666,
  "tags": {
    "amenity": "fast_food",
    "cuisine": "friture",
    "name": "Haktan"
  }
},
{
  "type": "node",
  "id": 4391562882,
  "lat": 51.0385522,
  "lon": 3.7316172,
  "tags": {
    "amenity": "fast_food",
    "name": "Mr. Wok"
  }
},
{
  "type": "node",
  "id": 4414853089,
  "lat": 51.0793470,
  "lon": 3.7567875,
  "tags": {
    "addr:housenumber": "68",
    "addr:postcode": "9041",
    "addr:street": "Lourdesstraat",
    "amenity": "fast_food",
    "name": "Layle"
  }
},
{
  "type": "node",
  "id": 4606858515,
  "lat": 51.0367231,
  "lon": 3.7127722,
  "tags": {
    "amenity": "fast_food",
    "brand": "Domino's",
    "cuisine": "pizza",
    "diet:vegan": "yes",
    "diet:vegetarian": "yes",
    "name": "Domino's"
  }
},
{
  "type": "node",
  "id": 4631920890,
  "lat": 51.0462389,
  "lon": 3.7219965,
  "tags": {
    "amenity": "fast_food",
    "name": "Verlorenkost",
    "name:nl": "Verlorenkost"
  }
},
{
  "type": "node",
  "id": 4631930989,
  "lat": 51.0463412,
  "lon": 3.7222863,
  "tags": {
    "amenity": "fast_food",
    "cuisine": "friture",
    "name": "Nederkouter",
    "name:nl": "Nederkouter"
  }
},
{
  "type": "node",
  "id": 4678162189,
  "lat": 51.0374720,
  "lon": 3.7140519,
  "tags": {
    "amenity": "fast_food",
    "name": "Pitta Sena",
    "website": "https://www.pittasena.be/"
  }
},
{
  "type": "node",
  "id": 4700139007,
  "lat": 51.0386963,
  "lon": 3.7102807,
  "tags": {
    "amenity": "fast_food",
    "name": "Pitta 03"
  }
},
{
  "type": "node",
  "id": 4807414326,
  "lat": 51.0575099,
  "lon": 3.7078978,
  "tags": {
    "amenity": "fast_food",
    "cuisine": "fish_and_chips",
    "delivery": "no",
    "drive_through": "no",
    "name": "Frituur Bargie",
    "smoking": "no",
    "takeaway": "yes"
  }
},
{
  "type": "node",
  "id": 4825426336,
  "lat": 51.0410245,
  "lon": 3.7265827,
  "tags": {
    "amenity": "fast_food",
    "name": "The Barn",
    "takeaway": "yes",
    "website": "https://thebarnghent.be/"
  }
},
{
  "type": "node",
  "id": 4857533585,
  "lat": 51.0247923,
  "lon": 3.7093609,
  "tags": {
    "addr:housenumber": "34",
    "addr:street": "Oudenaardsesteenweg",
    "amenity": "fast_food",
    "delivery": "yes",
    "description": "healthy food bar",
    "description:en": "healthy food bar",
    "description:nl": "gezonde eetbar",
    "diet:vegan": "no",
    "diet:vegetarian": "yes",
    "name": "Eetoile",
    "opening_hours": "Mo-Fr 10:00-15:00; PH off",
    "outdoor_seating": "yes",
    "phone": "+32 9 279 88 97",
    "start_date": "2017",
    "takeaway": "yes",
    "website": "https://eetoile.be/",
    "website:requires_javascript": "yes"
  }
},
{
  "type": "node",
  "id": 4909237822,
  "lat": 51.0621590,
  "lon": 3.7498975,
  "tags": {
    "amenity": "fast_food",
    "name": "Pitta Can"
  }
},
{
  "type": "node",
  "id": 4914802121,
  "lat": 51.0479218,
  "lon": 3.7275824,
  "tags": {
    "amenity": "fast_food",
    "cuisine": "pasta;sandwich",
    "name": "Pauze"
  }
},
{
  "type": "node",
  "id": 5029466553,
  "lat": 51.0574987,
  "lon": 3.7394919,
  "tags": {
    "addr:housenumber": "1/001",
    "addr:street": "Oktrooiplein",
    "amenity": "fast_food",
    "cuisine": "salad_bar",
    "level": "0",
    "name": "Romain Roquette"
  }
},
{
  "type": "node",
  "id": 5096286590,
  "lat": 51.0408816,
  "lon": 3.7256078,
  "tags": {
    "amenity": "fast_food",
    "cuisine": "fried_food",
    "name": "Frituur Merlin",
    "outdoor_seating": "no",
    "takeaway": "yes"
  }
},
{
  "type": "node",
  "id": 5223892622,
  "lat": 51.0561662,
  "lon": 3.7258365,
  "tags": {
    "addr:city": "Gent",
    "addr:housenumber": "28",
    "addr:postcode": "9000",
    "addr:street": "Serpentstraat",
    "amenity": "fast_food",
    "delivery": "yes",
    "description": "vegan sandwiches and salads",
    "diet:vegan": "only",
    "diet:vegetarian": "yes",
    "drive_through": "no",
    "name": "Mie Vie",
    "opening_hours": "Tu-Fr 09:30-15:00; Sa 10:00-18:00",
    "smoking": "no",
    "takeaway": "yes",
    "website": "http://mievie.be/"
  }
},
{
  "type": "node",
  "id": 5249251071,
  "lat": 51.0372475,
  "lon": 3.7094468,
  "tags": {
    "amenity": "fast_food",
    "cuisine": "salads",
    "name": "Hierbas",
    "website": "http://hierbas-salads.be/"
  }
},
{
  "type": "node",
  "id": 5275415929,
  "lat": 51.0375149,
  "lon": 3.7097807,
  "tags": {
    "addr:city": "Gent",
    "addr:housenumber": "10",
    "addr:postcode": "9000",
    "addr:street": "Koning Boudewijnstraat",
    "amenity": "fast_food",
    "cuisine": "friture",
    "name": "Tenderly",
    "phone": "+32 9 329 07 43",
    "website": "http://tenderly.be/"
  }
},
{
  "type": "node",
  "id": 5275465125,
  "lat": 51.0377767,
  "lon": 3.7149192,
  "tags": {
    "addr:city": "Gent",
    "addr:housenumber": "4",
    "addr:postcode": "9000",
    "addr:street": "Koningin Elisabethlaan",
    "amenity": "fast_food",
    "cuisine": "mexican",
    "name": "Holy Guacamoly",
    "website": "https://holyguacamoly.be/"
  }
},
{
  "type": "node",
  "id": 5275508759,
  "lat": 51.0557013,
  "lon": 3.7228712,
  "tags": {
    "addr:city": "Gent",
    "addr:housenumber": "1",
    "addr:postcode": "9000",
    "addr:street": "Hoogpoort",
    "amenity": "fast_food",
    "name": "Tasty World",
    "opening_hours": "Mo-Sa 11:00-21:00",
    "website": "https://tasty-world.business.site/"
  }
},
{
  "type": "node",
  "id": 5398773722,
  "lat": 51.0665284,
  "lon": 3.7324123,
  "tags": {
    "addr:housenumber": "7",
    "addr:postcode": "9000",
    "addr:street": "Dok-Noord",
    "amenity": "fast_food",
    "diet:vegan": "only",
    "email": "streetfood@v-box.be",
    "name": "V-Box",
    "opening_hours": "Tu-Fr 10:00-18:00; Sa 10:00-20:00",
    "phone": "+32 472 72 56 59",
    "website": "https://www.v-box.be/"
  }
},
{
  "type": "node",
  "id": 5402418241,
  "lat": 51.0312774,
  "lon": 3.7069079,
  "tags": {
    "addr:housenumber": "135",
    "addr:street": "Voskenslaan",
    "amenity": "fast_food",
    "name": "The Zone"
  }
},
{
  "type": "node",
  "id": 5586235264,
  "lat": 51.0374965,
  "lon": 3.7115138,
  "tags": {
    "addr:city": "Gent",
    "addr:housenumber": "38",
    "addr:postcode": "9000",
    "addr:street": "Koningin Maria Hendrikaplein",
    "amenity": "fast_food",
    "cuisine": "asian",
    "name": "Asian Grill"
  }
},
{
  "type": "node",
  "id": 5782574959,
  "lat": 51.0949113,
  "lon": 3.7586945,
  "tags": {
    "addr:postcode": "9041",
    "amenity": "fast_food",
    "cuisine": "burger;friture",
    "name": "Drie zwaantjes",
    "name:nl": "Drie zwaantjes"
  }
},
{
  "type": "node",
  "id": 5803560353,
  "lat": 51.0266650,
  "lon": 3.7205239,
  "tags": {
    "amenity": "fast_food",
    "cuisine": "pizza",
    "delivery": "yes",
    "diet:vegetarian": "yes",
    "drive_through": "no",
    "name": "Simpizza",
    "opening_hours": "10:00-02:00",
    "outdoor_seating": "no",
    "phone": "+32 9 321 02 00",
    "takeaway": "yes",
    "website": "https://www.simpizza.be/"
  }
},
{
  "type": "node",
  "id": 5813542646,
  "lat": 51.0267345,
  "lon": 3.7100248,
  "tags": {
    "addr:housenumber": "413",
    "addr:street": "Voskenslaan",
    "amenity": "fast_food",
    "cuisine": "friture",
    "delivery": "no",
    "diet:vegetarian": "yes",
    "name": "De Fritoloog",
    "opening_hours": "Mo-Fr 11:30-14:00,17:00-22:30; Su 18:00-22:30",
    "takeaway": "yes"
  }
},
{
  "type": "node",
  "id": 5815584262,
  "lat": 51.0617358,
  "lon": 3.7494087,
  "tags": {
    "addr:street": "Antwerpsesyeenweg 396 9040 Sint-Amands",
    "amenity": "fast_food",
    "cuisine": "friture",
    "name": "Frituur Sint-Amands",
    "opening_hours": "Tu-Fr 11:30-13:45; Tu-Th, Su 17:30-22:45; Fr, Sa 17:30-23:30",
    "phone": "+32 9 228 75 44"
  }
},
{
  "type": "node",
  "id": 5820296721,
  "lat": 51.0260179,
  "lon": 3.7114474,
  "tags": {
    "amenity": "fast_food",
    "brand": "Deliway",
    "cuisine": "sandwich",
    "delivery": "no",
    "name": "Deliway",
    "opening_hours": "Mo-Fr 06:00-18:45; Sa 09:00-17:00; Su,PH off",
    "takeaway": "only"
  }
},
{
  "type": "node",
  "id": 5856007887,
  "lat": 51.0667631,
  "lon": 3.7327466,
  "tags": {
    "addr:housenumber": "7",
    "addr:street": "Dok-Noord",
    "addr:unit": "11",
    "amenity": "fast_food",
    "description": "healthy foodbar",
    "name": "Hola Food",
    "opening_hours": "Mo-Fr 08:00-17:00; Sa 08:00-18:00",
    "phone": "+32 9 324 44 44",
    "website": "https://www.holafood.be/"
  }
},
{
  "type": "node",
  "id": 5918300537,
  "lat": 51.0477178,
  "lon": 3.7217716,
  "tags": {
    "amenity": "fast_food",
    "name": "Pasta la Vista",
    "takeaway": "yes",
    "website": "https://pastalavista.be/"
  }
},
{
  "type": "node",
  "id": 6039170041,
  "lat": 51.0130636,
  "lon": 3.7045491,
  "tags": {
    "addr:housenumber": "15 A",
    "addr:street": "Bollebergen",
    "amenity": "fast_food",
    "cuisine": "sandwich",
    "delivery": "no",
    "name": "Woody’s",
    "opening_hours": "Mo-Fr 07:30-18:00; We 07:30-14:00; SH Mo-Fr 08:30-14:00",
    "takeaway": "yes"
  }
},
{
  "type": "node",
  "id": 6129054366,
  "lat": 51.0105045,
  "lon": 3.7023027,
  "tags": {
    "addr:housenumber": "51",
    "addr:street": "Grotesteenweg-Noord",
    "amenity": "fast_food",
    "cuisine": "friture;sandwich",
    "email": "helena.tlekkerbekje@live.be",
    "name": "'t Lekkerbekje",
    "opening_hours": "Mo-Fr 10:00-14:00,17:00-22:00; PH off",
    "phone": "+32 9 330 06 41",
    "takeaway": "yes",
    "website": "http://www.tlekkerbekje.be/"
  }
},
{
  "type": "node",
  "id": 6153641862,
  "lat": 51.0852843,
  "lon": 3.6640537,
  "tags": {
    "addr:city": "Gent",
    "addr:housenumber": "170",
    "addr:postcode": "9030",
    "addr:street": "Brugsevaart",
    "amenity": "fast_food",
    "cuisine": "fries",
    "delivery": "no",
    "drive_through": "no",
    "name": "'t Satéke",
    "operator": "De Gouden Saté",
    "outdoor_seating": "yes",
    "takeaway": "yes"
  }
},
{
  "type": "node",
  "id": 6153641863,
  "lat": 51.0853955,
  "lon": 3.6645781,
  "tags": {
    "addr:city": "Gent",
    "addr:housenumber": "4",
    "addr:postcode": "9030",
    "addr:street": "Speistraat",
    "amenity": "fast_food",
    "cuisine": "sandwich",
    "delivery": "no",
    "drive_through": "no",
    "name": "Hap Hap",
    "outdoor_seating": "yes",
    "takeaway": "yes"
  }
},
{
  "type": "node",
  "id": 6174917085,
  "lat": 51.0741948,
  "lon": 3.7521629,
  "tags": {
    "amenity": "fast_food",
    "name": "Pitta Express"
  }
},
{
  "type": "node",
  "id": 6186313394,
  "lat": 51.0856308,
  "lon": 3.8008202,
  "tags": {
    "amenity": "fast_food",
    "name": "Nasi Time"
  }
},
{
  "type": "node",
  "id": 6218131747,
  "lat": 51.0115727,
  "lon": 3.7032321,
  "tags": {
    "amenity": "fast_food",
    "cuisine": "sandwich",
    "name": "Ally's"
  }
},
{
  "type": "node",
  "id": 6236003054,
  "lat": 51.0533304,
  "lon": 3.7239146,
  "tags": {
    "amenity": "fast_food",
    "cuisine": "friture",
    "name": "Frituur Tartaar"
  }
},
{
  "type": "node",
  "id": 6255570289,
  "lat": 51.0570960,
  "lon": 3.7331828,
  "tags": {
    "amenity": "fast_food",
    "name": "Noon"
  }
},
{
  "type": "node",
  "id": 6312636187,
  "lat": 51.0611173,
  "lon": 3.6932450,
  "tags": {
    "amenity": "fast_food",
    "name": "Ottoman"
  }
},
{
  "type": "node",
  "id": 6314072490,
  "lat": 51.0370373,
  "lon": 3.7266653,
  "tags": {
    "amenity": "fast_food",
    "name": "Heuvelpoort"
  }
},
{
  "type": "node",
  "id": 6327081393,
  "lat": 51.0525189,
  "lon": 3.7638079,
  "tags": {
    "amenity": "fast_food",
    "cuisine": "friture",
    "name": "Friethuis"
  }
},
{
  "type": "node",
  "id": 6329183588,
  "lat": 51.0785054,
  "lon": 3.7553382,
  "tags": {
    "amenity": "fast_food",
    "name": "Patat"
  }
},
{
  "type": "node",
  "id": 6342833498,
  "lat": 51.0689263,
  "lon": 3.7297961,
  "tags": {
    "amenity": "fast_food",
    "name": "Han",
    "opening_hours": "Su-Th 11:00-01:00, Fr,Sa 11:00-02:00"
  }
},
{
  "type": "node",
  "id": 6356381195,
  "lat": 51.0835372,
  "lon": 3.7301489,
  "tags": {
    "amenity": "fast_food",
    "name": "Saray"
  }
},
{
  "type": "node",
  "id": 6388961293,
  "lat": 51.0503088,
  "lon": 3.7302641,
  "tags": {
    "amenity": "fast_food",
    "name": "Grill Mix"
  }
},
{
  "type": "node",
  "id": 6393303687,
  "lat": 51.0198989,
  "lon": 3.6672897,
  "tags": {
    "addr:city": "Sint-Denijs-Westrem",
    "addr:housenumber": "6",
    "addr:postcode": "9051",
    "addr:street": "Gemeenteplein",
    "amenity": "fast_food",
    "cuisine": "sandwich",
    "name": "Olive"
  }
},
{
  "type": "node",
  "id": 6404585898,
  "lat": 51.0363110,
  "lon": 3.7239671,
  "tags": {
    "access": "private",
    "amenity": "fast_food",
    "capacity": "40",
    "cuisine": "sandwich",
    "delivery": "no",
    "diet:vegetarian": "yes",
    "level": "-1",
    "name": "Cafetaria Ledeganck",
    "opening_hours": "Mo-Fr 08:00-14:00; PH off",
    "operator": "Universiteit Gent",
    "operator:wikidata": "Q1137665",
    "outdoor_seating": "no",
    "takeaway": "yes",
    "website": "https://www.ugent.be/student/nl/meer-dan-studeren/resto/cafetarias/cafetariacampusledeganck.htm",
    "wheelchair": "yes"
  }
},
{
  "type": "node",
  "id": 6404585899,
  "lat": 51.0444597,
  "lon": 3.7254542,
  "tags": {
    "access": "private",
    "amenity": "fast_food",
    "capacity": "144",
    "cuisine": "sandwich",
    "delivery": "no",
    "diet:vegetarian": "yes",
    "name": "Cafetaria Blandijn",
    "opening_hours": "Mo-Fr 08:00-14:00; PH off",
    "operator": "Universiteit Gent",
    "operator:wikidata": "Q1137665",
    "takeaway": "yes",
    "website": "https://www.ugent.be/student/nl/meer-dan-studeren/resto/cafetarias/cafetariacampusboekentoren.htm"
  }
},
{
  "type": "node",
  "id": 6404585900,
  "lat": 51.0510766,
  "lon": 3.7235244,
  "tags": {
    "access": "private",
    "amenity": "fast_food",
    "capacity": "76",
    "cuisine": "sandwich",
    "delivery": "no",
    "diet:vegetarian": "yes",
    "name": "Cafetaria Aula",
    "opening_hours": "Mo-Fr 08:00-14:00; PH off",
    "operator": "Universiteit Gent",
    "operator:wikidata": "Q1137665",
    "outdoor_seating": "no",
    "takeaway": "yes",
    "website": "https://www.ugent.be/student/nl/meer-dan-studeren/resto/cafetarias/cafetariacampusaula.htm"
  }
},
{
  "type": "node",
  "id": 6404585902,
  "lat": 51.0250964,
  "lon": 3.7234962,
  "tags": {
    "access": "private",
    "amenity": "fast_food",
    "capacity": "120",
    "cuisine": "sandwich",
    "delivery": "no",
    "diet:vegetarian": "yes",
    "name": "Cafetaria UZ",
    "opening_hours": "Mo-Fr 08:00-14:00; PH off",
    "operator": "Universiteit Gent",
    "operator:wikidata": "Q1137665",
    "takeaway": "yes",
    "website": "https://www.ugent.be/student/nl/meer-dan-studeren/resto/cafetarias/cafetariacampusuzgent.htm"
  }
},
{
  "type": "node",
  "id": 6404585904,
  "lat": 51.0532836,
  "lon": 3.7072957,
  "tags": {
    "access": "private",
    "amenity": "fast_food",
    "capacity": "264",
    "cuisine": "sandwich",
    "delivery": "no",
    "diet:vegetarian": "yes",
    "level": "0",
    "name": "Cafetaria Coupure",
    "opening_hours": "Mo-Fr 08:00-14:00; PH off",
    "operator": "Universiteit Gent",
    "operator:wikidata": "Q1137665",
    "takeaway": "yes",
    "website": "https://www.ugent.be/student/nl/meer-dan-studeren/resto/cafetarias/cafetariacampuscoupure.htm"
  }
},
{
  "type": "node",
  "id": 6407364049,
  "lat": 51.1277571,
  "lon": 3.6790419,
  "tags": {
    "amenity": "fast_food",
    "cuisine": "friture",
    "name": "Diverto"
  }
},
{
  "type": "node",
  "id": 6410074282,
  "lat": 51.1386357,
  "lon": 3.7321711,
  "tags": {
    "amenity": "fast_food",
    "cuisine": "friture",
    "name": "Friethuisje Wippelgem",
    "website": "https://www.friethuisje.com/"
  }
},
{
  "type": "node",
  "id": 6420505087,
  "lat": 51.0573340,
  "lon": 3.7505182,
  "tags": {
    "amenity": "fast_food",
    "name": "Witte molen"
  }
},
{
  "type": "node",
  "id": 6440678291,
  "lat": 51.0628293,
  "lon": 3.7283697,
  "tags": {
    "amenity": "fast_food",
    "name": "Kübra"
  }
},
{
  "type": "node",
  "id": 6440678389,
  "lat": 51.0668628,
  "lon": 3.7269826,
  "tags": {
    "amenity": "fast_food",
    "name": "Tolpoort"
  }
},
{
  "type": "node",
  "id": 6440678401,
  "lat": 51.0622224,
  "lon": 3.7249160,
  "tags": {
    "amenity": "fast_food",
    "name": "Musa"
  }
},
{
  "type": "node",
  "id": 6466598285,
  "lat": 51.0918484,
  "lon": 3.7578534,
  "tags": {
    "amenity": "fast_food",
    "name": "De 3 zwaantjes"
  }
},
{
  "type": "node",
  "id": 6466598291,
  "lat": 51.0984359,
  "lon": 3.7630819,
  "tags": {
    "amenity": "fast_food",
    "name": "'t Friethoekje"
  }
},
{
  "type": "node",
  "id": 6486173576,
  "lat": 51.0338906,
  "lon": 3.7081888,
  "tags": {
    "addr:housenumber": "65",
    "addr:street": "Voskenslaan",
    "amenity": "fast_food",
    "cuisine": "sandwich",
    "email": "aiza@petitpaingent.be",
    "name": "Petit Pain",
    "opening_hours": "Mo-Th 07:30-16:30; Fr 07:30-14:30",
    "phone": "+32 9 383 51 76",
    "website": "http://petitpaingent.be/"
  }
},
{
  "type": "node",
  "id": 6511811019,
  "lat": 51.0817938,
  "lon": 3.7905382,
  "tags": {
    "addr:city": "Oostakker",
    "addr:housenumber": "1114",
    "addr:postcode": "9041",
    "addr:street": "Antwerpsesteenweg",
    "amenity": "fast_food",
    "brand": "Panos",
    "brand:wikidata": "Q3384496",
    "brand:wikipedia": "nl:Panos",
    "cuisine": "sandwich",
    "name": "Panos",
    "opening_hours": "Mo-Fr 05:00-19:00; Sa 08:00-18:00",
    "takeaway": "yes"
  }
},
{
  "type": "node",
  "id": 6533976548,
  "lat": 51.0608081,
  "lon": 3.7017421,
  "tags": {
    "amenity": "fast_food",
    "name": "Hünkar"
  }
},
{
  "type": "node",
  "id": 6567737059,
  "lat": 51.0330173,
  "lon": 3.6372770,
  "tags": {
    "addr:city": "Drongen",
    "addr:postcode": "9031",
    "addr:street": "Dienstenzone Drongen-Zuid",
    "air_conditioning": "yes",
    "amenity": "fast_food",
    "brand": "Burger King",
    "brand:wikidata": "Q177054",
    "brand:wikipedia": "en:Burger King",
    "cuisine": "burger",
    "drive_through": "no",
    "internet_access": "wlan",
    "name": "Burger King",
    "opening_hours": "10:00-22:00; Fr,Sa 10:00-23:00",
    "outdoor_seating": "yes",
    "payment:cash": "yes",
    "payment:credit_cards": "yes",
    "payment:debit_cards": "yes",
    "takeaway": "yes",
    "website": "https://www.burgerking.be",
    "wheelchair": "yes"
  }
},
{
  "type": "node",
  "id": 6574521174,
  "lat": 51.0355674,
  "lon": 3.6393328,
  "tags": {
    "addr:city": "Drongen",
    "addr:postcode": "9031",
    "addr:street": "Dienstenzone Drongen-Noord",
    "air_conditioning": "yes",
    "amenity": "fast_food",
    "brand": "Burger King",
    "brand:wikidata": "Q177054",
    "brand:wikipedia": "en:Burger King",
    "cuisine": "burger",
    "delivery": "no",
    "drive_through": "no",
    "internet_access": "wlan",
    "name": "Burger King",
    "opening_hours": "Mo-Su 10:00-22:00",
    "outdoor_seating": "yes",
    "smoking": "no",
    "takeaway": "yes",
    "website": "https://www.burgerking.be/",
    "wheelchair": "yes"
  }
},
{
  "type": "node",
  "id": 6613025199,
  "lat": 51.0528172,
  "lon": 3.7474081,
  "tags": {
    "amenity": "fast_food",
    "name": "Sari"
  }
},
{
  "type": "node",
  "id": 6613025297,
  "lat": 51.0528027,
  "lon": 3.7475113,
  "tags": {
    "amenity": "fast_food",
    "name": "Tantuni"
  }
},
{
  "type": "node",
  "id": 6613025398,
  "lat": 51.0566420,
  "lon": 3.7419457,
  "tags": {
    "amenity": "fast_food",
    "name": "Bodrum"
  }
},
{
  "type": "node",
  "id": 6613025408,
  "lat": 51.0533312,
  "lon": 3.7450985,
  "tags": {
    "amenity": "fast_food",
    "name": "Efsane"
  }
},
{
  "type": "node",
  "id": 6613025410,
  "lat": 51.0531226,
  "lon": 3.7457224,
  "tags": {
    "amenity": "fast_food",
    "name": "Adana"
  }
},
{
  "type": "node",
  "id": 6613025411,
  "lat": 51.0530430,
  "lon": 3.7460203,
  "tags": {
    "amenity": "fast_food",
    "name": "Cengoo"
  }
},
{
  "type": "node",
  "id": 6613025417,
  "lat": 51.0526526,
  "lon": 3.7486752,
  "tags": {
    "amenity": "fast_food"
  }
},
{
  "type": "node",
  "id": 6613025420,
  "lat": 51.0526929,
  "lon": 3.7471495,
  "tags": {
    "amenity": "fast_food",
    "name": "Adana"
  }
},
{
  "type": "node",
  "id": 6613025422,
  "lat": 51.0528788,
  "lon": 3.7470324,
  "tags": {
    "amenity": "fast_food",
    "name": "BXL"
  }
},
{
  "type": "node",
  "id": 6613025602,
  "lat": 51.0522404,
  "lon": 3.7483589,
  "tags": {
    "amenity": "fast_food",
    "name": "Yavuz"
  }
},
{
  "type": "node",
  "id": 6613025605,
  "lat": 51.0526892,
  "lon": 3.7484918,
  "tags": {
    "amenity": "fast_food",
    "name": "Kebap 32"
  }
},
{
  "type": "node",
  "id": 6613025608,
  "lat": 51.0574612,
  "lon": 3.7418686,
  "tags": {
    "amenity": "fast_food",
    "name": "Roma"
  }
},
{
  "type": "node",
  "id": 6761533186,
  "lat": 51.0680810,
  "lon": 3.6854840,
  "tags": {
    "amenity": "fast_food",
    "name": "Freddie's"
  }
},
{
  "type": "node",
  "id": 6796587651,
  "lat": 51.0715819,
  "lon": 3.7308615,
  "tags": {
    "amenity": "fast_food",
    "cuisine": "kebab",
    "name": "Adanaci"
  }
},
{
  "type": "node",
  "id": 6799991942,
  "lat": 51.0402209,
  "lon": 3.7256571,
  "tags": {
    "amenity": "fast_food",
    "name": "Deniz"
  }
},
{
  "type": "node",
  "id": 6900564092,
  "lat": 51.0573315,
  "lon": 3.7086722,
  "tags": {
    "amenity": "fast_food",
    "name": "Mina"
  }
},
{
  "type": "node",
  "id": 6933061185,
  "lat": 51.0535745,
  "lon": 3.7230453,
  "tags": {
    "amenity": "fast_food",
    "name": "O'Tacos"
  }
},
{
  "type": "node",
  "id": 6942598292,
  "lat": 51.0567042,
  "lon": 3.7414919,
  "tags": {
    "amenity": "fast_food",
    "name": "Gül"
  }
},
{
  "type": "node",
  "id": 6983070396,
  "lat": 51.0625875,
  "lon": 3.7101575,
  "tags": {
    "amenity": "fast_food",
    "name": "Doy Doy"
  }
},
{
  "type": "node",
  "id": 6983077031,
  "lat": 51.0600061,
  "lon": 3.7113296,
  "tags": {
    "amenity": "fast_food",
    "name": "Ankietie"
  }
},
{
  "type": "node",
  "id": 7014925079,
  "lat": 51.0488028,
  "lon": 3.7378823,
  "tags": {
    "amenity": "fast_food",
    "name": "Breadfast"
  }
},
{
  "type": "node",
  "id": 7020626409,
  "lat": 51.0409383,
  "lon": 3.7254031,
  "tags": {
    "addr:housenumber": "12",
    "addr:street": "Overpoortstraat",
    "amenity": "fast_food",
    "cuisine": "fried_food",
    "name": "Stefano's Place",
    "opening_hours": "Mo-Th 17:00-05:00; Fr 17:00-22:00"
  }
},
{
  "type": "node",
  "id": 7022352685,
  "lat": 51.0686098,
  "lon": 3.6851235,
  "tags": {
    "amenity": "fast_food"
  }
},
{
  "type": "node",
  "id": 7024562289,
  "lat": 51.0356771,
  "lon": 3.7126205,
  "tags": {
    "addr:housenumber": "195",
    "addr:street": "Prinses Clementinalaan",
    "amenity": "fast_food",
    "cuisine": "kebab",
    "diet:halal": "yes",
    "name": "Snack Elif",
    "opening_hours": "Mo-Fr, Su 17:00-00:00; Mo-Fr 11:00-14:00"
  }
},
{
  "type": "node",
  "id": 7085959087,
  "lat": 51.0621047,
  "lon": 3.7498135,
  "tags": {
    "amenity": "fast_food",
    "name": "Sint-Amands"
  }
},
{
  "type": "node",
  "id": 7098451647,
  "lat": 51.0735156,
  "lon": 3.7763330,
  "tags": {
    "addr:city": "Sint Amandsberg",
    "addr:housenumber": "733",
    "addr:postcode": "9040",
    "addr:street": "Antwerpsesteenweg",
    "amenity": "fast_food",
    "brand": "Quick",
    "brand:wikidata": "Q286494",
    "brand:wikipedia": "en:Quick (restaurant)",
    "cuisine": "burger",
    "drive_through": "yes",
    "name": "Quick",
    "opening_hours": "Mo-Su 11:00-23:00; PH off",
    "smoking": "no",
    "takeaway": "yes"
  }
},
{
  "type": "node",
  "id": 7106744189,
  "lat": 51.0499375,
  "lon": 3.7040531,
  "tags": {
    "addr:city": "Gent",
    "addr:housenumber": "45",
    "addr:postcode": "9000",
    "addr:street": "Antonius Triestlaan",
    "amenity": "fast_food",
    "cuisine": "belgian;friture",
    "name": "Frituur Ekkergem"
  }
},
{
  "type": "node",
  "id": 7122013890,
  "lat": 51.0122817,
  "lon": 3.7519973,
  "tags": {
    "addr:city": "Merelbeke",
    "addr:housenumber": "101",
    "addr:postcode": "9820",
    "addr:street": "Hundelgemsesteenweg",
    "addr:unit": "A",
    "amenity": "fast_food",
    "cuisine": "sandwich;soup",
    "delivery": "yes",
    "drive_through": "no",
    "name": "Toverbroodje",
    "phone": "+32 9 211 17 07",
    "takeaway": "yes",
    "website": "https://www.toverbroodje.be/",
    "wheelchair": "yes"
  }
},
{
  "type": "node",
  "id": 7142820242,
  "lat": 51.0521348,
  "lon": 3.7217196,
  "tags": {
    "amenity": "fast_food",
    "contact:facebook": "https://www.facebook.com/dolcebananagent/",
    "contact:instagram": "https://www.instagram.com/dolcebananagent/",
    "contact:website": "https://dolcebanana.eatbu.com",
    "cuisine": "waffle",
    "name": "Dolce Banana"
  }
},
{
  "type": "node",
  "id": 7158620690,
  "lat": 51.0544883,
  "lon": 3.7303315,
  "tags": {
    "amenity": "fast_food",
    "name": "Oh My Poké"
  }
},
{
  "type": "node",
  "id": 7158632888,
  "lat": 51.0552218,
  "lon": 3.7293026,
  "tags": {
    "amenity": "fast_food",
    "name": "Ventura"
  }
},
{
  "type": "node",
  "id": 7158635785,
  "lat": 51.0563347,
  "lon": 3.7263876,
  "tags": {
    "amenity": "fast_food",
    "name": "Vrydag"
  }
},
{
  "type": "node",
  "id": 7177702685,
  "lat": 51.0598803,
  "lon": 3.7025953,
  "tags": {
    "amenity": "fast_food",
    "name": "Cece"
  }
},
{
  "type": "node",
  "id": 7198244785,
  "lat": 51.0592199,
  "lon": 3.7044500,
  "tags": {
    "amenity": "fast_food",
    "name": "Sezer"
  }
}

  ]
}
